<?xml version="1.0" encoding="UTF-8"?>
<ndm xmlns:xsi="http://www.w3.org/2001/XMLSchema-instance" xsi:noNamespaceSchemaLocation="https://sanaregistry.org/r/ndmxml_unqualified/ndmxml-2.0.0-master-2.0.xsd">
<omm id="CCSDS_OMM_VERS" version="2.0">
<header><CREATION_DATE/><ORIGINATOR/></header><body><segment><metadata><OBJECT_NAME>KUIPER-00104</OBJECT_NAME><OBJECT_ID>2025-171L</OBJECT_ID><CENTER_NAME>EARTH</CENTER_NAME><REF_FRAME>TEME</REF_FRAME><TIME_SYSTEM>UTC</TIME_SYSTEM><MEAN_ELEMENT_THEORY>SGP4</MEAN_ELEMENT_THEORY></metadata><data><meanElements><EPOCH>2026-01-08T10:19:47.703936</EPOCH><MEAN_MOTION>14.76656983</MEAN_MOTION><ECCENTRICITY>.0004596</ECCENTRICITY><INCLINATION>51.9029</INCLINATION><RA_OF_ASC_NODE>64.0341</RA_OF_ASC_NODE><ARG_OF_PERICENTER>345.3611</ARG_OF_PERICENTER><MEAN_ANOMALY>14.7216</MEAN_ANOMALY></meanElements><tleParameters><EPHEMERIS_TYPE>0</EPHEMERIS_TYPE><CLASSIFICATION_TYPE>U</CLASSIFICATION_TYPE><NORAD_CAT_ID>65142</NORAD_CAT_ID><ELEMENT_SET_NO>999</ELEMENT_SET_NO><REV_AT_EPOCH>2397</REV_AT_EPOCH><BSTAR>.46252E-3</BSTAR><MEAN_MOTION_DOT>.3049E-4</MEAN_MOTION_DOT><MEAN_MOTION_DDOT>0</MEAN_MOTION_DDOT></tleParameters></data></segment></body></omm>
<omm id="CCSDS_OMM_VERS" version="2.0">
<header><CREATION_DATE/><ORIGINATOR/></header><body><segment><metadata><OBJECT_NAME>KUIPER-00105</OBJECT_NAME><OBJECT_ID>2025-171M</OBJECT_ID><CENTER_NAME>EARTH</CENTER_NAME><REF_FRAME>TEME</REF_FRAME><TIME_SYSTEM>UTC</TIME_SYSTEM><MEAN_ELEMENT_THEORY>SGP4</MEAN_ELEMENT_THEORY></metadata><data><meanElements><EPOCH>2026-01-08T10:22:54.079968</EPOCH><MEAN_MOTION>14.79879464</MEAN_MOTION><ECCENTRICITY>.0011214</ECCENTRICITY><INCLINATION>51.9006</INCLINATION><RA_OF_ASC_NODE>72.1063</RA_OF_ASC_NODE><ARG_OF_PERICENTER>270.2113</ARG_OF_PERICENTER><MEAN_ANOMALY>89.7564</MEAN_ANOMALY></meanElements><tleParameters><EPHEMERIS_TYPE>0</EPHEMERIS_TYPE><CLASSIFICATION_TYPE>U</CLASSIFICATION_TYPE><NORAD_CAT_ID>65143</NORAD_CAT_ID><ELEMENT_SET_NO>999</ELEMENT_SET_NO><REV_AT_EPOCH>2386</REV_AT_EPOCH><BSTAR>-.38535E-3</BSTAR><MEAN_MOTION_DOT>-.316E-4</MEAN_MOTION_DOT><MEAN_MOTION_DDOT>0</MEAN_MOTION_DDOT></tleParameters></data></segment></body></omm>
<omm id="CCSDS_OMM_VERS" version="2.0">
<header><CREATION_DATE/><ORIGINATOR/></header><body><segment><metadata><OBJECT_NAME>KUIPER-00106</OBJECT_NAME><OBJECT_ID>2025-171N</OBJECT_ID><CENTER_NAME>EARTH</CENTER_NAME><REF_FRAME>TEME</REF_FRAME><TIME_SYSTEM>UTC</TIME_SYSTEM><MEAN_ELEMENT_THEORY>SGP4</MEAN_ELEMENT_THEORY></metadata><data><meanElements><EPOCH>2026-01-08T03:54:13.801536</EPOCH><MEAN_MOTION>14.96874944</MEAN_MOTION><ECCENTRICITY>.00082039</ECCENTRICITY><INCLINATION>51.8943</INCLINATION><RA_OF_ASC_NODE>69.9494</RA_OF_ASC_NODE><ARG_OF_PERICENTER>259.6472</ARG_OF_PERICENTER><MEAN_ANOMALY>100.3573</MEAN_ANOMALY></meanElements><tleParameters><EPHEMERIS_TYPE>0</EPHEMERIS_TYPE><CLASSIFICATION_TYPE>U</CLASSIFICATION_TYPE><NORAD_CAT_ID>65144</NORAD_CAT_ID><ELEMENT_SET_NO>999</ELEMENT_SET_NO><REV_AT_EPOCH>2387</REV_AT_EPOCH><BSTAR>.62667668E-3</BSTAR><MEAN_MOTION_DOT>.7018E-4</MEAN_MOTION_DOT><MEAN_MOTION_DDOT>0</MEAN_MOTION_DDOT></tleParameters></data></segment></body></omm>
<omm id="CCSDS_OMM_VERS" version="2.0">
<header><CREATION_DATE/><ORIGINATOR/></header><body><segment><metadata><OBJECT_NAME>KUIPER-00107</OBJECT_NAME><OBJECT_ID>2025-171P</OBJECT_ID><CENTER_NAME>EARTH</CENTER_NAME><REF_FRAME>TEME</REF_FRAME><TIME_SYSTEM>UTC</TIME_SYSTEM><MEAN_ELEMENT_THEORY>SGP4</MEAN_ELEMENT_THEORY></metadata><data><meanElements><EPOCH>2026-01-08T07:35:18.212928</EPOCH><MEAN_MOTION>14.79737155</MEAN_MOTION><ECCENTRICITY>.00008267</ECCENTRICITY><INCLINATION>51.9016</INCLINATION><RA_OF_ASC_NODE>55.0577</RA_OF_ASC_NODE><ARG_OF_PERICENTER>119.1747</ARG_OF_PERICENTER><MEAN_ANOMALY>240.9298</MEAN_ANOMALY></meanElements><tleParameters><EPHEMERIS_TYPE>0</EPHEMERIS_TYPE><CLASSIFICATION_TYPE>U</CLASSIFICATION_TYPE><NORAD_CAT_ID>65145</NORAD_CAT_ID><ELEMENT_SET_NO>999</ELEMENT_SET_NO><REV_AT_EPOCH>2409</REV_AT_EPOCH><BSTAR>.51638346E-3</BSTAR><MEAN_MOTION_DOT>.37E-4</MEAN_MOTION_DOT><MEAN_MOTION_DDOT>0</MEAN_MOTION_DDOT></tleParameters></data></segment></body></omm>
<omm id="CCSDS_OMM_VERS" version="2.0">
<header><CREATION_DATE/><ORIGINATOR/></header><body><segment><metadata><OBJECT_NAME>KUIPER-00108</OBJECT_NAME><OBJECT_ID>2025-171Q</OBJECT_ID><CENTER_NAME>EARTH</CENTER_NAME><REF_FRAME>TEME</REF_FRAME><TIME_SYSTEM>UTC</TIME_SYSTEM><MEAN_ELEMENT_THEORY>SGP4</MEAN_ELEMENT_THEORY></metadata><data><meanElements><EPOCH>2026-01-08T04:50:22.655040</EPOCH><MEAN_MOTION>14.79819099</MEAN_MOTION><ECCENTRICITY>.00057804</ECCENTRICITY><INCLINATION>51.9030</INCLINATION><RA_OF_ASC_NODE>68.0728</RA_OF_ASC_NODE><ARG_OF_PERICENTER>282.7375</ARG_OF_PERICENTER><MEAN_ANOMALY>77.2941</MEAN_ANOMALY></meanElements><tleParameters><EPHEMERIS_TYPE>0</EPHEMERIS_TYPE><CLASSIFICATION_TYPE>U</CLASSIFICATION_TYPE><NORAD_CAT_ID>65146</NORAD_CAT_ID><ELEMENT_SET_NO>999</ELEMENT_SET_NO><REV_AT_EPOCH>2390</REV_AT_EPOCH><BSTAR>.63585929E-2</BSTAR><MEAN_MOTION_DOT>.48482E-3</MEAN_MOTION_DOT><MEAN_MOTION_DDOT>0</MEAN_MOTION_DDOT></tleParameters></data></segment></body></omm>
<omm id="CCSDS_OMM_VERS" version="2.0">
<header><CREATION_DATE/><ORIGINATOR/></header><body><segment><metadata><OBJECT_NAME>KUIPER-00109</OBJECT_NAME><OBJECT_ID>2025-171R</OBJECT_ID><CENTER_NAME>EARTH</CENTER_NAME><REF_FRAME>TEME</REF_FRAME><TIME_SYSTEM>UTC</TIME_SYSTEM><MEAN_ELEMENT_THEORY>SGP4</MEAN_ELEMENT_THEORY></metadata><data><meanElements><EPOCH>2026-01-08T07:23:54.839040</EPOCH><MEAN_MOTION>14.79937293</MEAN_MOTION><ECCENTRICITY>.0011009</ECCENTRICITY><INCLINATION>51.9027</INCLINATION><RA_OF_ASC_NODE>62.5429</RA_OF_ASC_NODE><ARG_OF_PERICENTER>291.4784</ARG_OF_PERICENTER><MEAN_ANOMALY>68.5005</MEAN_ANOMALY></meanElements><tleParameters><EPHEMERIS_TYPE>0</EPHEMERIS_TYPE><CLASSIFICATION_TYPE>U</CLASSIFICATION_TYPE><NORAD_CAT_ID>65147</NORAD_CAT_ID><ELEMENT_SET_NO>999</ELEMENT_SET_NO><REV_AT_EPOCH>2398</REV_AT_EPOCH><BSTAR>.51293889E-3</BSTAR><MEAN_MOTION_DOT>.3693E-4</MEAN_MOTION_DOT><MEAN_MOTION_DDOT>0</MEAN_MOTION_DDOT></tleParameters></data></segment></body></omm>
<omm id="CCSDS_OMM_VERS" version="2.0">
<header><CREATION_DATE/><ORIGINATOR/></header><body><segment><metadata><OBJECT_NAME>KUIPER-00110</OBJECT_NAME><OBJECT_ID>2025-171S</OBJECT_ID><CENTER_NAME>EARTH</CENTER_NAME><REF_FRAME>TEME</REF_FRAME><TIME_SYSTEM>UTC</TIME_SYSTEM><MEAN_ELEMENT_THEORY>SGP4</MEAN_ELEMENT_THEORY></metadata><data><meanElements><EPOCH>2026-01-08T04:38:40.276608</EPOCH><MEAN_MOTION>14.79918355</MEAN_MOTION><ECCENTRICITY>.00021822</ECCENTRICITY><INCLINATION>51.9001</INCLINATION><RA_OF_ASC_NODE>75.6509</RA_OF_ASC_NODE><ARG_OF_PERICENTER>331.5892</ARG_OF_PERICENTER><MEAN_ANOMALY>28.4951</MEAN_ANOMALY></meanElements><tleParameters><EPHEMERIS_TYPE>0</EPHEMERIS_TYPE><CLASSIFICATION_TYPE>U</CLASSIFICATION_TYPE><NORAD_CAT_ID>65148</NORAD_CAT_ID><ELEMENT_SET_NO>999</ELEMENT_SET_NO><REV_AT_EPOCH>2378</REV_AT_EPOCH><BSTAR>.26673256E-3</BSTAR><MEAN_MOTION_DOT>.1812E-4</MEAN_MOTION_DOT><MEAN_MOTION_DDOT>0</MEAN_MOTION_DDOT></tleParameters></data></segment></body></omm>
<omm id="CCSDS_OMM_VERS" version="2.0">
<header><CREATION_DATE/><ORIGINATOR/></header><body><segment><metadata><OBJECT_NAME>KUIPER-00111</OBJECT_NAME><OBJECT_ID>2025-171T</OBJECT_ID><CENTER_NAME>EARTH</CENTER_NAME><REF_FRAME>TEME</REF_FRAME><TIME_SYSTEM>UTC</TIME_SYSTEM><MEAN_ELEMENT_THEORY>SGP4</MEAN_ELEMENT_THEORY></metadata><data><meanElements><EPOCH>2026-01-08T05:19:31.072224</EPOCH><MEAN_MOTION>14.79897454</MEAN_MOTION><ECCENTRICITY>.00066915</ECCENTRICITY><INCLINATION>51.8976</INCLINATION><RA_OF_ASC_NODE>80.4533</RA_OF_ASC_NODE><ARG_OF_PERICENTER>279.1900</ARG_OF_PERICENTER><MEAN_ANOMALY>80.8305</MEAN_ANOMALY></meanElements><tleParameters><EPHEMERIS_TYPE>0</EPHEMERIS_TYPE><CLASSIFICATION_TYPE>U</CLASSIFICATION_TYPE><NORAD_CAT_ID>65149</NORAD_CAT_ID><ELEMENT_SET_NO>999</ELEMENT_SET_NO><REV_AT_EPOCH>2372</REV_AT_EPOCH><BSTAR>-.78800348E-4</BSTAR><MEAN_MOTION_DOT>-.823E-5</MEAN_MOTION_DOT><MEAN_MOTION_DDOT>0</MEAN_MOTION_DDOT></tleParameters></data></segment></body></omm>

</ndm>
