KUIPER-00104            
1 65142U 25171L   26008.43041324  .00003049  00000+0  46252-3 0  9998
2 65142  51.9029  64.0341 0004596 345.3611  14.7216 14.76656983 23978
KUIPER-00105            
1 65143U 25171M   26008.43257037 -.00003160  00000+0 -38535-3 0  9990
2 65143  51.9006  72.1063 0011214 270.2113  89.7564 14.79879464 23863
KUIPER-00106            
1 65144U 25171N   26008.16265974  .00007018  00000+0  62668-3 0  9998
2 65144  51.8943  69.9494 0008203 259.6472 100.3573 14.96874944 23876
KUIPER-00107            
1 65145U 25171P   26008.31618302  .00003700  00000+0  51638-3 0  9992
2 65145  51.9016  55.0577 0000826 119.1747 240.9298 14.79737155 24098
KUIPER-00108            
1 65146U 25171Q   26008.20165110  .00048482  00000+0  63586-2 0  9995
2 65146  51.9030  68.0728 0005780 282.7375  77.2941 14.79819099 23908
KUIPER-00109            
1 65147U 25171R   26008.30827360  .00003693  00000+0  51294-3 0  9998
2 65147  51.9027  62.5429 0011009 291.4784  68.5005 14.79937293 23983
KUIPER-00110            
1 65148U 25171S   26008.19352172  .00001812  00000+0  26673-3 0  9994
2 65148  51.9001  75.6509 0002182 331.5892  28.4951 14.79918355 23789
KUIPER-00111            
1 65149U 25171T   26008.22188741 -.00000823  00000+0 -78800-4 0  9991
2 65149  51.8976  80.4533 0006691 279.1900  80.8305 14.79897454 23722
